format  = 'OEF2.0'       ! file format
rectype = 'ML'           ! record type (1L/ML)
refsys  = ECLM J2000     ! default reference system
END_OF_HEADER
11234
! Equinoctial elements: a, e*sin(LP), e*cos(LP), tan(i/2)*sin(LN), tan(i/2)*cos(LN), mean long.
 EQU   2.6808535916678031E+00   0.032872036471001   0.036254405825130    0.103391596538937   -0.042907901689093 235.8395861037268
 MJD     61000.000000000 TDT
 MAG  12.874  0.150
! Non-grav parameters: model used, actual number in use, dimension
 LSP   0  0    6
! RMS    8.44233E-09   2.02912E-08   2.79305E-08   1.99256E-08   2.70957E-08   3.59488E-06
! EIG   4.32147E-09   1.95625E-08   1.98896E-08   2.71679E-08   2.81075E-08   6.32919E-08
! WEA   0.11148  -0.04923   0.02288   0.01690   0.04820  -0.99097
 COV   7.127288588137234E-17 -1.237814048345344E-18 -1.520378947368798E-17
 COV   2.767146501592021E-18 -2.215907544723251E-18 -2.538070197324694E-14
 COV   4.117324514257782E-16  5.788099673445422E-17 -2.164987082336040E-18
 COV  -8.756288900657679E-18  1.027134589285031E-14  7.801143683962991E-16
 COV  -1.828839967927444E-17  2.398733437557991E-18 -4.542031354135051E-15
 COV   3.970281850045432E-16  6.473600733063910E-17 -3.345948576308995E-15
 COV   7.341757970497095E-16 -9.040011299734087E-15  1.292319252517208E-11
 NOR   5.256483681470704E+16 -2.744103192455260E+15  1.856440928495499E+15
 NOR   3.779670457470374E+14  1.405888670381425E+15  1.071503042683901E+14
 NOR   2.651424932917291E+15 -2.953618746620291E+14 -3.361850046811550E+13
 NOR  -6.700036116536018E+13 -7.656055607395438E+12  1.367349200434265E+15
 NOR   7.828104555220666E+13  4.504960839247941E+13  4.413093286853671E+12
 NOR   2.564731457134626E+15 -2.094812813102073E+14  1.314046628823635E+12
 NOR   1.430340391127343E+15  3.776514323146707E+12  2.984377737516700E+11
